[{"OBJECT_NAME":"STARLINK-4129","OBJECT_ID":"2022-086K","EPOCH":"2026-03-09T15:15:53.294400","MEAN_MOTION":15.08834962,"ECCENTRICITY":0.0001302,"INCLINATION":53.2174,"RA_OF_ASC_NODE":194.3595,"ARG_OF_PERICENTER":91.1591,"MEAN_ANOMALY":268.955,"EPHEMERIS_TYPE":0,"CLASSIFICATION_TYPE":"U","NORAD_CAT_ID":53251,"ELEMENT_SET_NO":999,"REV_AT_EPOCH":20105,"BSTAR":-8.7742e-6,"MEAN_MOTION_DOT":-4.27e-6,"MEAN_MOTION_DDOT":0},{"OBJECT_NAME":"FENGYUN 1C DEB","OBJECT_ID":"1999-025CSF","EPOCH":"2026-03-06T14:46:48.189792","MEAN_MOTION":14.83626867,"ECCENTRICITY":0.01812709,"INCLINATION":98.4497,"RA_OF_ASC_NODE":202.5264,"ARG_OF_PERICENTER":124.6228,"MEAN_ANOMALY":237.2229,"EPHEMERIS_TYPE":0,"CLASSIFICATION_TYPE":"U","NORAD_CAT_ID":32137,"ELEMENT_SET_NO":999,"REV_AT_EPOCH":67973,"BSTAR":0.0017939615,"MEAN_MOTION_DOT":0.00019795,"MEAN_MOTION_DDOT":0}]
